PROBA-1                 
1 26958U 01049B   23003.53378741  .00001808  00000+0  15423-3 0  9994
2 26958  97.8512 328.7408 0071837  37.5700 323.0509 14.97051883154406
BIRD 2                  
1 26959U 01049C   23003.29263451  .00026206  00000+0  44693-3 0  9999
2 26959  97.7650 114.4881 0005627  19.1824 340.9638 15.51321810177846
CUTE-1 (CO-55)          
1 27844U 03031E   23003.46836524  .00000398  00000+0  19774-3 0  9998
2 27844  98.6792  13.1511 0008931 239.9111 120.1182 14.22574464 12341
CUBESAT XI-IV (CO-57)   
1 27848U 03031J   23003.28356233  .00000326  00000+0  16702-3 0  9995
2 27848  98.6832  13.4406 0008705 256.7501 103.2706 14.22114022 12114
GENESIS 1               
1 29252U 06029A   23003.06991584  .00008211  00000+0  34800-3 0  9996
2 29252  64.5205 134.6785 0046061 232.8412 126.8503 15.22819556909419
FALCONSAT-3             
1 30776U 07006E   23003.34459844  .00372673  52361-4  11422-2 0  9996
2 30776  35.4241   8.3092 0008689 190.6423 169.4137 15.90759941880919
GENESIS 2               
1 31789U 07028A   23003.48877077  .00006703  00000+0  29062-3 0  9998
2 31789  64.4937 177.0044 0059603 284.8613  74.5915 15.21623569856371
APRIZESAT 4             
1 35684U 09041D   23003.32048767  .00000868  00000+0  12052-3 0  9999
2 35684  98.3007  28.7414 0047826  71.0244 289.6140 14.79900641724673
APRIZESAT 3             
1 35686U 09041F   23002.53130061  .00001635  00000+0  17540-3 0  9992
2 35686  98.1018  98.6083 0070220 255.3761 103.9661 14.88357466728219
PROBA-2                 
1 36037U 09059B   23002.74871822  .00000337  00000+0  91658-4 0  9993
2 36037  98.2206 190.6207 0012771 210.2669 149.7791 14.53359704698201
APRIZESAT 5             
1 37792U 11044E   23003.43708330  .00000925  00000+0  13862-3 0  9992
2 37792  98.2980 249.4435 0058755  86.6395 274.1533 14.76033277612648
APRIZESAT 6             
1 37793U 11044F   23003.45854260  .00000810  00000+0  13243-3 0  9995
2 37793  98.3753 227.0632 0047154 140.5967 339.2293 14.73015555611455
PROBA-V                 
1 39159U 13021A   23003.33214044  .00000064  00000+0  46306-4 0  9995
2 39159  98.3366  33.9286 0003456 213.0320 147.0644 14.23068362501753
STPSAT-3                
1 39380U 13064A   23003.63841002  .00105240  00000+0  10901-2 0  9993
2 39380  40.4973 259.9265 0013134 293.1526  66.7926 15.63450571512045
APRIZESAT 7             
1 39416U 13066A   23003.18864564  .00001488  00000+0  17848-3 0  9990
2 39416  97.5976 338.6428 0041841  60.9886 299.5513 14.84847674493707
APRIZESAT 8             
1 39425U 13066K   23002.45868869  .00000987  00000+0  12801-3 0  9998
2 39425  97.6552 329.8022 0052584 108.2240 252.4707 14.81953226492436
BUGSAT-1 (TITA)         
1 40014U 14033E   23003.57634516  .00003810  00000+0  32776-3 0  9994
2 40014  98.1431  15.3209 0031890  94.6586 265.8279 14.97656216466086
SAUDISAT 4              
1 40016U 14033G   23002.79155979  .00000819  00000+0  12454-3 0  9997
2 40016  97.6339 191.6636 0047083 213.2638 146.5611 14.75770174459790
APRIZESAT 9             
1 40018U 14033J   23003.27166753  .00000769  00000+0  13027-3 0  9996
2 40018  97.7303 168.3808 0069485 292.4879  66.8982 14.70482580458141
APRIZESAT 10            
1 40019U 14033K   23003.35652645  .00000564  00000+0  10293-3 0  9991
2 40019  97.7902 158.5892 0083153 339.4463  20.3403 14.67509365457295
TDS 1                   
1 40076U 14037H   23003.42162850  .00003852  00000+0  44050-3 0  9991
2 40076  98.3647 251.8517 0007329 135.9990 224.1808 14.86631445459489
TIANTUO 2               
1 40144U 14053B   23003.50838860  .00009629  00000+0  23883-3 0  9994
2 40144  97.1786  84.6084 0009817 186.6963 299.5140 15.40526439465865
TECHNOSAT               
1 42829U 17042E   23003.12582598  .00002602  00000+0  25828-3 0  9994
2 42829  97.3979 210.4326 0015329  61.8900 298.3867 14.92463292297860
FLYING LAPTOP           
1 42831U 17042G   23002.85175591  .00002077  00000+0  20825-3 0  9995
2 42831  97.4000 210.5175 0015023  63.1682 297.1078 14.92266728297827
HAWK-A                  
1 43765U 18099H   23003.41170025  .00002975  00000+0  25718-3 0  9998
2 43765  97.5983  71.1945 0013432 326.5785  33.4588 14.97883753223063
HAWK-B                  
1 43794U 18099AN  23002.61045805  .00002828  00000+0  24475-3 0  9994
2 43794  97.5983  70.4144 0013553 329.8724  30.1718 14.97881337222931
HAWK-C                  
1 43799U 18099AT  23003.14466523  .00002551  00000+0  22123-3 0  9993
2 43799  97.5980  70.8389 0013416 327.5669  32.4728 14.97883472223017
SALSAT                  
1 46495U 20068K   23002.89256060  .00003068  00000+0  21660-3 0  9991
2 46495  97.7521 309.6049 0015143 327.5513  32.4781 15.05622109124184
